PWSA_L_00002001-01
1 86504U 22233VQ  26070.40853009  .00000000  00000+0  00000-0 0  9998
2 86504  81.0000   0.0000 0000000   0.0000   0.0000 13.85625880    11
PWSA_L_00002001-02
1 86505U 22291EF  26070.40853009  .00000000  00000+0  00000-0 0  9993
2 86505  81.0000   0.0000 0000000   0.0000  36.0000 13.85625880    11
PWSA_L_00002001-03
1 86506U 26221WZ  26070.40853009  .00000000  00000+0  00000-0 0  9991
2 86506  81.0000   0.0000 0000000   0.0000  72.0000 13.85625880    12
